MEAN_MOTION;ECCENTRICITY;INCLINATION;RA_OF_ASC_NODE;ARG_OF_PERICENTER;MEAN_ANOMALY;BSTAR;MEAN_MOTION_DOT;MEAN_MOTION_DDOT;TYPE
0.99110154;0.0011883;15.4545;5.3975;291.4031;281.0024;0;-1.0E-7;0;Intelsat
0.99110085;0.001185;15.4544;5.3884;291.455;252.3873;0;7.0E-8;0;Intelsat
0.99110064;0.0011844;15.4544;5.3868;291.4649;310.6293;0;1.0E-7;0;Intelsat
0.99110053;0.001183;15.4543;5.3782;291.4835;263.9536;0;2.2E-7;0;Intelsat
0.99110092;0.0011811;15.4542;5.3683;291.5276;265.4483;0;3.3E-7;0;Intelsat
0.99110415;0.0011787;15.454;5.3485;291.6314;268.3194;0;4.4E-7;0;Intelsat
0.99110415;0.0011787;15.454;5.3485;291.6314;268.3194;0;4.4E-7;0;Intelsat
0.99110687;0.0011774;15.4539;5.3386;291.7143;269.7204;0;4.4E-7;0;Intelsat
0.99110999;0.0011761;15.4538;5.329;291.8162;261.8785;0;4.1E-7;0;Intelsat
0.99110999;0.0011761;15.4538;5.329;291.8162;261.8785;0;4.1E-7;0;Intelsat
0.99111366;0.001174;15.4537;5.3193;291.9587;260.5328;0;3.4E-7;0;Intelsat
0.99111965;0.0011729;15.4535;5.3053;292.1428;55.8723;0;1.9E-7;0;Intelsat
0.99112572;0.0011712;15.4533;5.2907;292.3375;237.961;0;-3.0E-8;0;Intelsat
0.99112613;0.0011714;15.4533;5.2897;292.359;271.7665;0;-5.0E-8;0;Intelsat
0.99112916;0.0011692;15.4532;5.2829;292.4738;164.3578;0;-1.7E-7;0;Intelsat
0.99113082;0.0011671;15.4532;5.2797;292.5718;283.3297;0;-2.3E-7;0;Intelsat
0.99113995;0.0011596;15.4529;5.2614;292.9506;242.5989;0;-6.1E-7;0;Intelsat
0.99114441;0.0011558;15.4528;5.2518;293.1415;240.7548;0;-8.3E-7;0;Intelsat
0.99114511;0.0011535;15.4528;5.2497;293.193;317.7661;0;-8.8E-7;0;Intelsat
0.99114898;0.0011458;15.4527;5.2392;293.4253;346.5095;0;-1.12E-6;0;Intelsat
0.99115142;0.0011427;15.4526;5.2324;293.5802;236.9649;0;-1.27E-6;0;Intelsat
0.99115142;0.0011427;15.4526;5.2324;293.5802;236.9649;0;-1.28E-6;0;Intelsat
0.99115447;0.0011372;15.4524;5.2228;293.7536;235.1142;0;-1.49E-6;0;Intelsat
0.99115678;0.0011301;15.4523;5.213;293.9201;242.1935;0;-1.7E-6;0;Intelsat
0.99116045;0.0011181;15.452;5.1935;294.1739;247.742;0;-2.08E-6;0;Intelsat
0.99116097;0.0011122;15.4519;5.1839;294.2634;243.4898;0;-2.23E-6;0;Intelsat
0.99116131;0.0011058;15.4517;5.1742;294.3292;242.9805;0;-2.37E-6;0;Intelsat
0.99116101;0.0011038;15.4517;5.1706;294.3011;16.9424;0;-2.41E-6;0;Intelsat
0.99116141;0.0010942;15.4516;5.1644;294.4395;249.9468;0;-2.48E-6;0;Intelsat
0.99116052;0.0010879;15.4515;5.1551;294.4617;237.2559;0;-2.57E-6;0;Intelsat
0.99115885;0.0010813;15.4514;5.1442;294.4234;280.0768;0;-2.64E-6;0;Intelsat
0.99115682;0.0010774;15.4512;5.1354;294.4221;244.9784;0;-2.68E-6;0;Intelsat
0.99115411;0.0010725;15.4511;5.1257;294.363;243.3782;0;-2.69E-6;0;Intelsat
0.99115131;0.0010678;15.451;5.116;294.317;241.7426;0;-2.68E-6;0;Intelsat
0.99114446;0.0010511;15.4507;5.0987;294.274;163.6222;0;-2.58E-6;0;Intelsat
0.9911443;0.0010474;15.4507;5.0966;294.2765;238.4298;0;-2.57E-6;0;Intelsat
0.99113358;0.0010325;15.4503;5.0676;294.2682;233.4042;0;-2.19E-6;0;Intelsat
0.99112991;0.0010288;15.4501;5.0573;294.3299;257.2082;0;-2.0E-6;0;Intelsat
0.99112607;0.0010226;15.45;5.0474;294.3656;262.4193;0;-1.8E-6;0;Intelsat
0.99112282;0.0010184;15.4498;5.0381;294.4423;250.7084;0;-1.6E-6;0;Intelsat
0.99111929;0.001014;15.4497;5.0285;294.5316;251.1511;0;-1.37E-6;0;Intelsat
0.99111669;0.0010098;15.4495;5.0188;294.5884;250.2311;0;-1.15E-6;0;Intelsat
0.99111658;0.0010102;15.4495;5.0176;294.6003;293.3006;0;-1.12E-6;0;Intelsat
0.99111433;0.0010114;15.4494;5.0092;294.5843;248.5521;0;-9.2E-7;0;Intelsat
0.9911123;0.0010044;15.4492;4.9996;294.691;246.7543;0;-7.0E-7;0;Intelsat
0.99111095;0.0009981;15.449;4.9882;294.7406;313.1754;0;-4.4E-7;0;Intelsat
0.99110993;0.0009921;15.4489;4.9787;294.7122;306.5075;0;-2.4E-7;0;Intelsat
0.99110931;0.0009853;15.4487;4.9695;294.7374;287.699;0;-6.0E-8;0;Intelsat
0.99110896;0.0009705;15.4486;4.9596;294.6247;305.9526;0;1.1E-7;0;Intelsat
0.99110931;0.0009656;15.4484;4.9518;294.6396;238.3323;0;2.3E-7;0;Intelsat
0.99111041;0.0009585;15.4483;4.9422;294.6791;236.589;0;3.5E-7;0;Intelsat
0.99111198;0.0009533;15.4481;4.9326;294.6811;234.8942;0;4.4E-7;0;Intelsat
0.99111275;0.000951;15.448;4.9284;294.6139;30.8567;0;4.7E-7;0;Intelsat
0.99111465;0.000943;15.4479;4.9222;294.6219;258.803;0;5.0E-7;0;Intelsat
0.99111626;0.0009368;15.4477;4.9135;294.5441;225.0945;0;5.2E-7;0;Intelsat
0.99112024;0.0009277;15.4475;4.903;294.3935;255.6712;0;4.9E-7;0;Intelsat
0.9911216;0.0009272;15.4474;4.8998;294.2859;14.9489;0;4.8E-7;0;Intelsat
0.99112529;0.0009119;15.4473;4.8888;293.7035;60.9634;0;3.9E-7;0;Intelsat
0.99112703;0.000907;15.4472;4.8836;293.6282;253.0729;0;3.3E-7;0;Intelsat
0.99113115;0.0009003;15.447;4.8739;293.4365;251.5548;0;1.9E-7;0;Intelsat
0.99113527;0.0008946;15.4469;4.8642;293.2369;250.095;0;2.0E-8;0;Intelsat
0.99113547;0.0008938;15.4469;4.8635;293.1902;275.3998;0;0;0;Intelsat
0.99113939;0.0008886;15.4467;4.8544;292.9926;248.6045;0;-1.9E-7;0;Intelsat
0.99114363;0.0008833;15.4465;4.8446;292.7569;250.5985;0;-4.2E-7;0;Intelsat
0.99114571;0.0008831;15.4464;4.8417;292.6338;0.4389;0;-4.9E-7;0;Intelsat
0.99114812;0.0008793;15.4463;4.8348;292.4729;253.096;0;-6.7E-7;0;Intelsat
0.99115225;0.0008704;15.4461;4.8248;292.0479;264.833;0;-9.5E-7;0;Intelsat
0.99115597;0.0008664;15.446;4.8152;291.8675;262.5843;0;-1.22E-6;0;Intelsat
0.99115985;0.0008603;15.4458;4.8053;291.611;269.8313;0;-1.5E-6;0;Intelsat
0.99116331;0.000858;15.4456;4.7961;291.5046;250.8555;0;-1.75E-6;0;Intelsat
0.99116705;0.0008534;15.4454;4.782;291.3632;57.7657;0;-2.12E-6;0;Intelsat
0.99116895;0.0008511;15.4452;4.7723;291.3186;56.1337;0;-2.36E-6;0;Intelsat
0.99116858;0.0008495;15.4451;4.7663;291.1757;281.6296;0;-2.49E-6;0;Intelsat
0.99116867;0.0008465;15.445;4.7626;291.1303;59.079;0;-2.57E-6;0;Intelsat
0.99116988;0.0008436;15.4449;4.7572;291.0186;259.4507;0;-2.67E-6;0;Intelsat
0.99117062;0.0008387;15.4447;4.7476;290.9374;257.8864;0;-2.84E-6;0;Intelsat
0.99116973;0.000831;15.4445;4.738;290.7307;257.9577;0;-2.97E-6;0;Intelsat
0.99116919;0.0008279;15.4444;4.7335;290.6724;65.2977;0;-3.02E-6;0;Intelsat
0.99116581;0.0008167;15.4441;4.7182;290.2851;271.8913;0;-3.11E-6;0;Intelsat
0.99116396;0.0008116;15.4439;4.7091;290.1585;251.9937;0;-3.12E-6;0;Intelsat
0.99116075;0.0008047;15.4437;4.6995;289.9543;250.5164;0;-3.08E-6;0;Intelsat
0.99115895;0.0008008;15.4436;4.6947;289.7431;69.8989;0;-3.05E-6;0;Intelsat
0.99115689;0.0007975;15.4435;4.6897;289.6757;249.1306;0;-3.01E-6;0;Intelsat
0.99115474;0.0007929;15.4434;4.685;289.4043;68.5723;0;-2.95E-6;0;Intelsat
0.99114791;0.0007827;15.4431;4.6707;289.0454;246.4134;0;-2.73E-6;0;Intelsat
0.99114344;0.0007746;15.4429;4.6608;288.581;253.3301;0;-2.54E-6;0;Intelsat
0.99113838;0.0007678;15.4427;4.6514;288.1265;243.9496;0;-2.33E-6;0;Intelsat
0.99113349;0.0007614;15.4424;4.6415;287.6786;252.7077;0;-2.09E-6;0;Intelsat
0.99112863;0.0007555;15.4422;4.632;287.1965;245.2598;0;-1.83E-6;0;Intelsat
0.9911237;0.0007489;15.4419;4.6221;286.498;254.8356;0;-1.57E-6;0;Intelsat
0.99111916;0.0007423;15.4417;4.6121;285.6685;265.1866;0;-1.29E-6;0;Intelsat
0.99111443;0.0007367;15.4415;4.5988;284.9256;33.3229;0;-9.4E-7;0;Intelsat
0.99111342;0.0007356;15.4415;4.5975;284.805;83.5231;0;-9.0E-7;0;Intelsat
0.99111128;0.0007331;15.4413;4.5906;284.3491;338.1096;0;-7.2E-7;0;Intelsat
0.99110885;0.0007301;15.4411;4.583;283.8205;261.9548;0;-5.4E-7;0;Intelsat
0.99110805;0.0007279;15.441;4.5781;283.4865;81.4679;0;-4.2E-7;0;Intelsat
0.99110709;0.000727;15.4409;4.5732;283.181;260.9246;0;-3.1E-7;0;Intelsat
0.99110561;0.0007254;15.4407;4.5636;282.69;259.7144;0;-1.1E-7;0;Intelsat
0.99110518;0.0007244;15.4405;4.5539;282.2835;258.5495;0;6.0E-8;0;Intelsat
0.9911049;0.000723;15.4403;4.5442;281.8293;257.0855;0;2.1E-7;0;Intelsat
0.99110558;0.0007211;15.44;4.533;281.2888;315.6678;0;3.4E-7;0;Intelsat
0.99110558;0.0007211;15.44;4.533;281.2888;315.6678;0;3.4E-7;0;Intelsat
0.99110669;0.0007199;15.4398;4.5249;280.8955;254.7562;0;4.0E-7;0;Intelsat
0.99110898;0.0007184;15.4396;4.5153;280.4938;253.442;0;4.4E-7;0;Intelsat
0.99111066;0.0007171;15.4395;4.5105;280.3372;72.7894;0;4.5E-7;0;Intelsat
0.99111205;0.0007168;15.4394;4.5056;280.0995;252.1707;0;4.5E-7;0;Intelsat
0.99111521;0.0007153;15.4391;4.496;279.8556;250.7188;0;4.1E-7;0;Intelsat
0.99111708;0.0007135;15.439;4.4911;279.6472;70.09;0;3.9E-7;0;Intelsat
0.99111926;0.000713;15.4389;4.4862;279.473;251.8337;0;3.5E-7;0;Intelsat
0.99112309;0.00071;15.4386;4.476;279.0065;273.7041;0;2.3E-7;0;Intelsat
0.99112558;0.0007084;15.4385;4.4711;278.8335;93.0669;0;1.7E-7;0;Intelsat
0.991128;0.0007073;15.4384;4.4663;278.6368;272.3997;0;1.0E-7;0;Intelsat
0.99113216;0.0007043;15.4382;4.4571;278.2675;256.5464;0;-6.0E-8;0;Intelsat
0.99113424;0.0007025;15.438;4.452;278.0602;84.5045;0;-1.5E-7;0;Intelsat
0.99113865;0.0006996;15.4378;4.4424;277.6751;82.7009;0;-3.5E-7;0;Intelsat
0.99114157;0.0006976;15.4377;4.4375;277.4799;268.5041;0;-4.6E-7;0;Intelsat
0.99114586;0.0006942;15.4374;4.4278;276.9618;267.3353;0;-6.7E-7;0;Intelsat
0.991148;0.0006933;15.4373;4.423;276.6642;86.8123;0;-7.8E-7;0;Intelsat
0.99115406;0.0006877;15.437;4.4085;275.8528;265.111;0;-1.13E-6;0;Intelsat
0.99115517;0.0006872;15.4369;4.4037;275.4408;84.6938;0;-1.24E-6;0;Intelsat
0.99115705;0.0006847;15.4368;4.3989;275.1404;264.1352;0;-1.35E-6;0;Intelsat
0.99115966;0.0006822;15.4365;4.3892;274.4043;263.1711;0;-1.58E-6;0;Intelsat
0.99116037;0.0006823;15.4364;4.3843;274.0163;82.7311;0;-1.69E-6;0;Intelsat
0.99116419;0.0006784;15.4361;4.3698;273.1569;261.0769;0;-1.99E-6;0;Intelsat
0.99116504;0.0006775;15.4358;4.36;272.493;260.0788;0;-2.18E-6;0;Intelsat
0.99116517;0.0006774;15.4356;4.3502;271.8956;258.9986;0;-2.35E-6;0;Intelsat
0.9911653;0.0006777;15.4354;4.3404;271.308;257.924;0;-2.49E-6;0;Intelsat
0.99116448;0.0006787;15.4352;4.3299;270.7336;282.3594;0;-2.62E-6;0;Intelsat
0.99116257;0.0006807;15.435;4.3201;269.657;281.7595;0;-2.71E-6;0;Intelsat
0.99116257;0.0006807;15.435;4.3201;269.657;281.7595;0;-2.71E-6;0;Intelsat
0.99116029;0.0006838;15.4348;4.3103;268.6988;281.0486;0;-2.76E-6;0;Intelsat
0.99115832;0.0006858;15.4346;4.3006;268.3707;279.7022;0;-2.79E-6;0;Intelsat
0.99115832;0.0006858;15.4346;4.3006;268.3707;279.7022;0;-2.79E-6;0;Intelsat
